ORBCOMM FM37 [-]        
1 33064U 08031E   23363.99700675  .00002146  00000+0  34065-3 0  9991
2 33064  48.4419 359.3776 0006232 250.8377 207.3205 14.75642176834909
ORBCOMM FM40 [-]        
1 33065U 08031F   23363.96902854  .00002720  00000+0  41268-3 0  9993
2 33065  48.4442 350.0798 0007540 257.8675 199.8631 14.76794576834922
VESSELSAT 1 [-]         
1 37840U 11058C   23364.55173161  .00000389  00000+0  68142-4 0  9998
2 37840  19.9619  88.2824 0013978  66.6838 293.5036 14.11098013630922
ORBCOMM FM109 [+]       
1 40086U 14040A   23364.44435734  .00001183  00000+0  30259-3 0  9993
2 40086  47.0052  17.8142 0002087 345.8151  14.2675 14.56213218503078
ORBCOMM FM107 [+]       
1 40087U 14040B   23364.47847349  .00001186  00000+0  30324-3 0  9992
2 40087  47.0072  18.5979 0002276 315.1697  44.9004 14.56207202503153
ORBCOMM FM111 [-]       
1 40089U 14040D   23364.55842581  .00003987  00000+0  53455-3 0  9997
2 40089  47.0029 157.3798 0033671 165.1783 195.0106 14.80685619510855
ORBCOMM FM104 [-]       
1 40090U 14040E   23364.18015573  .00000902  00000+0  24699-3 0  9993
2 40090  47.0067  47.4696 0018155 282.2938  77.5913 14.54737989502678
